ONEWEB-0620             
1 55161U 23004X   26023.78472266 -.00000526  00000+0 -15196-2 0  9990
2 55161  87.8816  49.8230 0001843 103.5178 256.6155 13.11416672146907
ONEWEB-0621             
1 55162U 23004Y   26023.50667396  .00000348  00000+0  94648-3 0  9991
2 55162  87.8828  49.8537 0002057  91.5398 268.5966 13.11416933146844
ONEWEB-0622             
1 55163U 23004Z   26023.81694006  .00000479  00000+0  13143-2 0  9999
2 55163  87.8821  49.7969 0002546 102.8602 257.2810 13.11419883146876
ONEWEB-0623             
1 55164U 23004AA  26023.96724770  .00000060  00000+0  12195-3 0  9991
2 55164  87.9084  34.5426 0002609  88.0203 272.1227 13.17650995148597
ONEWEB-0624             
1 55165U 23004AB  26023.93094349 -.00000291  00000+0 -83747-3 0  9990
2 55165  87.8926  19.2520 0002093  88.6550 271.4818 13.12923900149149
ONEWEB-0625             
1 55166U 23004AC  26023.95712646  .00000081  00000+0  17473-3 0  9998
2 55166  87.9082  34.5387 0001720  85.4961 274.6367 13.17649765148582
ONEWEB-0626             
1 55167U 23004AD  26023.71918771  .00000040  00000+0  68638-4 0  9995
2 55167  87.9085  34.5865 0001597 105.5020 254.6288 13.17650049148553
ONEWEB-0627             
1 55168U 23004AE  26023.78330205  .00000015  00000+0  57319-5 0  9990
2 55168  87.9082  34.5737 0002401  92.5345 267.6061 13.17651189148569
